{
    "week": 293,
    "satellites": [
        {
            "Name": "COSMOS 2433 (720)",
            "Line1": "1 32275U 07052A   24320.78942660 -.00000046  00000+0  00000+0 0  9995",
            "Line2": "2 32275  65.8744 335.3305 0005849 249.6004 110.3798  2.13103965132733",
            "SatelliteNumber": "32275",
            "Classification": "U",
            "LaunchYear": "07",
            "LaunchNumber": "052",
            "PieceOfLaunch": "A",
            "EpochYear": "24",
            "EpochDay": 320.7894266,
            "FirstDerivativeMeanMotion": -4.6e-07,
            "SecondDerivativeMeanMotion": "00000+0",
            "BSTAR": "00000+0",
            "SetNumber": "999",
            "Inclination": 65.8744,
            "RAAN": 335.3305,
            "Eccentricity": 0.0005849,
            "ArgumentOfPerigee": 249.6004,
            "MeanAnomaly": 110.3798,
            "MeanMotion": 2.13103965,
            "RevolutionNumber": "13273"
        },
        {
            "Name": "COSMOS 2432 (719)",
            "Line1": "1 32276U 07052B   24321.09258590 -.00000048  00000+0  00000+0 0  9995",
            "Line2": "2 32276  65.8894 335.4372 0011111 309.7855 228.5048  2.13103069132764",
            "SatelliteNumber": "32276",
            "Classification": "U",
            "LaunchYear": "07",
            "LaunchNumber": "052",
            "PieceOfLaunch": "B",
            "EpochYear": "24",
            "EpochDay": 321.0925859,
            "FirstDerivativeMeanMotion": -4.8e-07,
            "SecondDerivativeMeanMotion": "00000+0",
            "BSTAR": "00000+0",
            "SetNumber": "999",
            "Inclination": 65.8894,
            "RAAN": 335.4372,
            "Eccentricity": 0.0011111,
            "ArgumentOfPerigee": 309.7855,
            "MeanAnomaly": 228.5048,
            "MeanMotion": 2.13103069,
            "RevolutionNumber": "13276"
        },
        {
            "Name": "COSMOS 2434 (721)",
            "Line1": "1 32393U 07065A   24321.39910354  .00000049  00000+0  00000+0 0  9995",
            "Line2": "2 32393  64.3157 211.4224 0003576  69.4069 290.3385  2.13101244131484",
            "SatelliteNumber": "32393",
            "Classification": "U",
            "LaunchYear": "07",
            "LaunchNumber": "065",
            "PieceOfLaunch": "A",
            "EpochYear": "24",
            "EpochDay": 321.39910354,
            "FirstDerivativeMeanMotion": 4.9e-07,
            "SecondDerivativeMeanMotion": "00000+0",
            "BSTAR": "00000+0",
            "SetNumber": "999",
            "Inclination": 64.3157,
            "RAAN": 211.4224,
            "Eccentricity": 0.0003576,
            "ArgumentOfPerigee": 69.4069,
            "MeanAnomaly": 290.3385,
            "MeanMotion": 2.13101244,
            "RevolutionNumber": "13148"
        },
        {
            "Name": "COSMOS 2436 (723)",
            "Line1": "1 32395U 07065C   24321.46024235  .00000049  00000+0  00000+0 0  9999",
            "Line2": "2 32395  64.3243 211.4864 0017189   5.1460 176.2580  2.13099974131428",
            "SatelliteNumber": "32395",
            "Classification": "U",
            "LaunchYear": "07",
            "LaunchNumber": "065",
            "PieceOfLaunch": "C",
            "EpochYear": "24",
            "EpochDay": 321.46024235,
            "FirstDerivativeMeanMotion": 4.9e-07,
            "SecondDerivativeMeanMotion": "00000+0",
            "BSTAR": "00000+0",
            "SetNumber": "999",
            "Inclination": 64.3243,
            "RAAN": 211.4864,
            "Eccentricity": 0.0017189,
            "ArgumentOfPerigee": 5.146,
            "MeanAnomaly": 176.258,
            "MeanMotion": 2.13099974,
            "RevolutionNumber": "13142"
        },
        {
            "Name": "COSMOS 2456 (730)",
            "Line1": "1 36111U 09070A   24321.63315924 -.00000004  00000+0  00000+0 0  9996",
            "Line2": "2 36111  64.6876  90.7278 0001820 305.2636  28.5611  2.13103566116154",
            "SatelliteNumber": "36111",
            "Classification": "U",
            "LaunchYear": "09",
            "LaunchNumber": "070",
            "PieceOfLaunch": "A",
            "EpochYear": "24",
            "EpochDay": 321.63315924,
            "FirstDerivativeMeanMotion": -4e-08,
            "SecondDerivativeMeanMotion": "00000+0",
            "BSTAR": "00000+0",
            "SetNumber": "999",
            "Inclination": 64.6876,
            "RAAN": 90.7278,
            "Eccentricity": 0.000182,
            "ArgumentOfPerigee": 305.2636,
            "MeanAnomaly": 28.5611,
            "MeanMotion": 2.13103566,
            "RevolutionNumber": "11615"
        },
        {
            "Name": "COSMOS 2457 (733)",
            "Line1": "1 36112U 09070B   24321.48180581 -.00000005  00000+0  00000+0 0  9990",
            "Line2": "2 36112  64.6724  90.5883 0005923 151.5421 198.9005  2.13101015116155",
            "SatelliteNumber": "36112",
            "Classification": "U",
            "LaunchYear": "09",
            "LaunchNumber": "070",
            "PieceOfLaunch": "B",
            "EpochYear": "24",
            "EpochDay": 321.48180581,
            "FirstDerivativeMeanMotion": -5e-08,
            "SecondDerivativeMeanMotion": "00000+0",
            "BSTAR": "00000+0",
            "SetNumber": "999",
            "Inclination": 64.6724,
            "RAAN": 90.5883,
            "Eccentricity": 0.0005923,
            "ArgumentOfPerigee": 151.5421,
            "MeanAnomaly": 198.9005,
            "MeanMotion": 2.13101015,
            "RevolutionNumber": "11615"
        },
        {
            "Name": "COSMOS 2460 (732)",
            "Line1": "1 36402U 10007C   24321.61700385 -.00000051  00000+0  00000+0 0  9990",
            "Line2": "2 36402  65.7274 333.9417 0002979 261.8716 186.1616  2.13106134114518",
            "SatelliteNumber": "36402",
            "Classification": "U",
            "LaunchYear": "10",
            "LaunchNumber": "007",
            "PieceOfLaunch": "C",
            "EpochYear": "24",
            "EpochDay": 321.61700385,
            "FirstDerivativeMeanMotion": -5.1e-07,
            "SecondDerivativeMeanMotion": "00000+0",
            "BSTAR": "00000+0",
            "SetNumber": "999",
            "Inclination": 65.7274,
            "RAAN": 333.9417,
            "Eccentricity": 0.0002979,
            "ArgumentOfPerigee": 261.8716,
            "MeanAnomaly": 186.1616,
            "MeanMotion": 2.13106134,
            "RevolutionNumber": "11451"
        },
        {
            "Name": "COSMOS 2476 (744)",
            "Line1": "1 37867U 11064A   24318.96577088  .00000017  00000+0  00000+0 0  9997",
            "Line2": "2 37867  64.9565  92.5096 0022698 231.2266 127.8783  2.13101446101390",
            "SatelliteNumber": "37867",
            "Classification": "U",
            "LaunchYear": "11",
            "LaunchNumber": "064",
            "PieceOfLaunch": "A",
            "EpochYear": "24",
            "EpochDay": 318.96577088,
            "FirstDerivativeMeanMotion": 1.7e-07,
            "SecondDerivativeMeanMotion": "00000+0",
            "BSTAR": "00000+0",
            "SetNumber": "999",
            "Inclination": 64.9565,
            "RAAN": 92.5096,
            "Eccentricity": 0.0022698,
            "ArgumentOfPerigee": 231.2266,
            "MeanAnomaly": 127.8783,
            "MeanMotion": 2.13101446,
            "RevolutionNumber": "10139"
        },
        {
            "Name": "COSMOS 2477 (745)",
            "Line1": "1 37868U 11064B   24321.54777723 -.00000001  00000+0  00000+0 0  9998",
            "Line2": "2 37868  64.9649  92.4960 0019901 231.6355 127.1738  2.13102892101444",
            "SatelliteNumber": "37868",
            "Classification": "U",
            "LaunchYear": "11",
            "LaunchNumber": "064",
            "PieceOfLaunch": "B",
            "EpochYear": "24",
            "EpochDay": 321.54777723,
            "FirstDerivativeMeanMotion": -1e-08,
            "SecondDerivativeMeanMotion": "00000+0",
            "BSTAR": "00000+0",
            "SetNumber": "999",
            "Inclination": 64.9649,
            "RAAN": 92.496,
            "Eccentricity": 0.0019901,
            "ArgumentOfPerigee": 231.6355,
            "MeanAnomaly": 127.1738,
            "MeanMotion": 2.13102892,
            "RevolutionNumber": "10144"
        },
        {
            "Name": "COSMOS 2475 (743)",
            "Line1": "1 37869U 11064C   24319.68748516  .00000009  00000+0  00000+0 0  9996",
            "Line2": "2 37869  64.9710  92.5754 0024278 247.8480  81.5407  2.13101551101411",
            "SatelliteNumber": "37869",
            "Classification": "U",
            "LaunchYear": "11",
            "LaunchNumber": "064",
            "PieceOfLaunch": "C",
            "EpochYear": "24",
            "EpochDay": 319.68748516,
            "FirstDerivativeMeanMotion": 9e-08,
            "SecondDerivativeMeanMotion": "00000+0",
            "BSTAR": "00000+0",
            "SetNumber": "999",
            "Inclination": 64.971,
            "RAAN": 92.5754,
            "Eccentricity": 0.0024278,
            "ArgumentOfPerigee": 247.848,
            "MeanAnomaly": 81.5407,
            "MeanMotion": 2.13101551,
            "RevolutionNumber": "10141"
        }
    ]
}